NORAD_CAT_ID,OBJECT_NAME,OBJECT_TYPE,EPOCH,MEAN_MOTION,ECCENTRICITY,INCLINATION,RA_OF_ASC_NODE,ARG_OF_PERICENTER,MEAN_ANOMALY,BSTAR,MEAN_MOTION_DOT,MEAN_MOTION_DDOT,TLE_LINE0,TLE_LINE1,TLE_LINE2,SEMIMAJOR_AXIS,PERIOD,APOGEE,PERIGEE,DECAYED
54000.0,STARLINK-5088,PAYLOAD,2023-07-06 01:48:16,15.0883202,7.77e-05,53.2172,272.9936,90.6234,269.4847,6.4418e-05,7.38e-06,0.0,0 STARLINK-5088,1 54000U 22125AN  23187.07519445  .00000738  00000-0  64418-4 0  9992,2 54000  53.2172 272.9936 0000777  90.6234 269.4847 15.08832020 42087,6917.905,95.438,540.307,539.232,0.0
54000.0,STARLINK-5088,PAYLOAD,2023-07-07 09:35:59,15.08841501,7.89e-05,53.2171,267.0465,89.4945,270.6137,8.6466e-05,1.089e-05,0.0,0 STARLINK-5088,1 54000U 22125AN  23188.39999162  .00001089  00000-0  86466-4 0  9993,2 54000  53.2171 267.0465 0000789  89.4945 270.6137 15.08841501 42288,6917.876,95.437,540.287,539.195,0.0
54000.0,STARLINK-5088,PAYLOAD,2023-07-08 12:37:32,15.08842129,8.75e-05,53.2163,261.991,76.8494,283.2596,6.0416e-05,6.74e-06,0.0,0 STARLINK-5088,1 54000U 22125AN  23189.52607120  .00000674  00000-0  60416-4 0  9995,2 54000  53.2163 261.9910 0000875  76.8494 283.2596 15.08842129 42457,6917.874,95.437,540.344,539.134,0.0
54000.0,STARLINK-5088,PAYLOAD,2023-07-09 04:31:24,15.0883502,8.04e-05,53.2165,259.0178,58.0561,302.0509,-3.1485e-05,-7.89e-06,0.0,0 STARLINK-5088,1 54000U 22125AN  23190.18847904 -.00000789  00000-0 -31485-4 0  9998,2 54000  53.2165 259.0178 0000804  58.0561 302.0509 15.08835020 42559,6917.896,95.438,540.317,539.204,0.0
54000.0,STARLINK-5088,PAYLOAD,2023-07-09 22:00:38,15.08841383,8.37e-05,53.2161,255.7463,73.4649,286.6435,-1.8405e-05,-5.81e-06,0.0,0 STARLINK-5088,1 54000U 22125AN  23190.91711549 -.00000581  00000-0 -18405-4 0  9991,2 54000  53.2161 255.7463 0000837  73.4649 286.6435 15.08841383 42665,6917.876,95.437,540.32,539.162,0.0
54000.0,STARLINK-5088,PAYLOAD,2023-07-10 23:26:48,15.08837902,8.9e-05,53.2157,250.9876,69.4085,290.7002,7.6887e-05,9.36e-06,0.0,0 STARLINK-5088,1 54000U 22125AN  23191.97695452  .00000936  00000-0  76887-4 0  9992,2 54000  53.2157 250.9876 0000890  69.4085 290.7002 15.08837902 42829,6917.887,95.438,540.367,539.136,0.0
54000.0,STARLINK-5088,PAYLOAD,2023-07-12 02:28:22,15.08838784,9.34e-05,53.2154,245.9324,70.0062,290.1031,-5.0187e-06,-3.68e-06,0.0,0 STARLINK-5088,1 54000U 22125AN  23193.10303873 -.00000368  00000-0 -50187-5 0  9999,2 54000  53.2154 245.9324 0000934  70.0062 290.1031 15.08838784 42993,6917.884,95.438,540.395,539.103,0.0
54000.0,STARLINK-5088,PAYLOAD,2023-07-13 08:40:42,15.08834267,9.4e-05,53.215,240.2814,69.1714,290.9379,9.3032e-06,-1.4e-06,0.0,0 STARLINK-5088,1 54000U 22125AN  23194.36160194 -.00000140  00000-0  93032-5 0  9998,2 54000  53.2150 240.2814 0000940  69.1714 290.9379 15.08834267 43188,6917.898,95.438,540.413,539.113,0.0
54000.0,STARLINK-5088,PAYLOAD,2023-07-14 10:06:52,15.08836256,0.0001084,53.2161,235.524,101.8106,258.3008,6.2742e-05,7.11e-06,0.0,0 STARLINK-5088,1 54000U 22125AN  23195.42144171  .00000711  00000-0  62742-4 0  9999,2 54000  53.2161 235.5240 0001084 101.8106 258.3008 15.08836256 43344,6917.892,95.438,540.507,539.007,0.0
54000.0,STARLINK-5088,PAYLOAD,2023-07-15 08:22:15,15.08844809,9.7e-05,53.2159,231.3613,85.3504,274.7599,0.00011606,1.56e-05,0.0,0 STARLINK-5088,1 54000U 22125AN  23196.34879526  .00001560  00000-0  11606-3 0  9995,2 54000  53.2159 231.3613 0000970  85.3504 274.7599 15.08844809 43485,6917.866,95.437,540.402,539.06,0.0
54000.0,STARLINK-5088,PAYLOAD,2023-07-15 22:40:44,15.08834562,9.94e-05,53.2157,228.6852,86.3605,273.7501,3.9063e-05,3.34e-06,0.0,0 STARLINK-5088,1 54000U 22125AN  23196.94496404  .00000334  00000-0  39063-4 0  9997,2 54000  53.2157 228.6852 0000994  86.3605 273.7501 15.08834562 43573,6917.897,95.438,540.45,539.074,0.0
54000.0,STARLINK-5088,PAYLOAD,2023-07-17 06:28:27,15.0884076,9.45e-05,53.2156,222.7372,87.0989,273.0111,1.2608e-05,-8.7e-07,0.0,0 STARLINK-5088,1 54000U 22125AN  23198.26976338 -.00000087  00000-0  12608-4 0  9995,2 54000  53.2156 222.7372 0000945  87.0989 273.0111 15.08840760 43772,6917.878,95.438,540.397,539.089,0.0
54000.0,STARLINK-5088,PAYLOAD,2023-07-18 07:54:37,15.08841218,9.03e-05,53.2155,217.979,86.422,273.6876,0.00012924,1.77e-05,0.0,0 STARLINK-5088,1 54000U 22125AN  23199.32959939  .00001770  00000-0  12924-3 0  9990,2 54000  53.2155 217.9790 0000903  86.4220 273.6876 15.08841218 43937,6917.877,95.437,540.366,539.117,0.0
54000.0,STARLINK-5088,PAYLOAD,2023-07-19 01:23:52,15.08837742,9.24e-05,53.2151,214.7078,85.9762,274.1335,4.2571e-05,3.9e-06,0.0,0 STARLINK-5088,1 54000U 22125AN  23200.05824469  .00000390  00000-0  42571-4 0  9991,2 54000  53.2151 214.7078 0000924  85.9762 274.1335 15.08837742 44041,6917.887,95.438,540.392,539.113,0.0
54000.0,STARLINK-5088,PAYLOAD,2023-07-21 01:05:26,15.08833848,9.8e-05,53.216,205.7885,88.4176,271.6928,4.6175e-05,4.47e-06,0.0,0 STARLINK-5088,1 54000U 22125AN  23202.04544924  .00000447  00000-0  46175-4 0  9994,2 54000  53.2160 205.7885 0000980  88.4176 271.6928 15.08833848 44342,6917.899,95.438,540.442,539.086,0.0
54000.0,STARLINK-5088,PAYLOAD,2023-07-23 23:02:25,15.08837395,0.0001104,53.2157,192.703,87.9703,272.1416,9.5513e-06,-1.36e-06,0.0,0 STARLINK-5088,1 54000U 22125AN  23204.96001167 -.00000136  00000-0  95513-5 0  9991,2 54000  53.2157 192.7030 0001104  87.9703 272.1416 15.08837395 44714,6917.888,95.438,540.517,538.99,0.0
54000.0,STARLINK-5088,PAYLOAD,2023-07-25 10:00:53,15.08844613,0.0001062,53.2159,186.161,90.9971,269.1142,5.6919e-05,6.18e-06,0.0,0 STARLINK-5088,1 54000U 22125AN  23206.41728510  .00000618  00000-0  56919-4 0  9991,2 54000  53.2159 186.1610 0001062  90.9971 269.1142 15.08844613 44938,6917.866,95.437,540.466,538.997,0.0
54000.0,STARLINK-5088,PAYLOAD,2023-07-26 09:51:40,15.08840617,0.0001081,53.2163,181.7009,87.7307,272.3809,3.2644e-05,2.32e-06,0.0,0 STARLINK-5088,1 54000U 22125AN  23207.41088798  .00000232  00000-0  32644-4 0  9990,2 54000  53.2163 181.7009 0001081  87.7307 272.3809 15.08840617 45087,6917.879,95.438,540.491,538.996,0.0
54000.0,STARLINK-5088,PAYLOAD,2023-07-27 08:07:04,15.08843378,0.0001274,53.2149,177.5384,95.8508,264.2629,3.6309e-05,2.9e-06,0.0,0 STARLINK-5088,1 54000U 22125AN  23208.33824655  .00000290  00000-0  36309-4 0  9998,2 54000  53.2149 177.5384 0001274  95.8508 264.2629 15.08843378 45220,6917.87,95.437,540.616,538.854,0.0
54000.0,STARLINK-5088,PAYLOAD,2023-07-27 14:28:37,15.08830713,0.000124,53.2156,176.3486,89.1433,270.9701,6.062e-06,-1.91e-06,0.0,0 STARLINK-5088,1 54000U 22125AN  23208.60321536 -.00000191  00000-0  60620-5 0  9993,2 54000  53.2156 176.3486 0001240  89.1433 270.9701 15.08830713 45330,6917.909,95.438,540.632,538.916,0.0
54000.0,STARLINK-5088,PAYLOAD,2023-07-27 22:25:33,15.08829218,0.0001364,53.2153,174.8626,81.7707,278.344,-2.8077e-06,-3.33e-06,0.0,0 STARLINK-5088,1 54000U 22125AN  23208.93441942 -.00000333  00000-0 -28077-5 0  9992,2 54000  53.2153 174.8626 0001364  81.7707 278.3440 15.08829218 45313,6917.913,95.438,540.722,538.835,0.0
54000.0,STARLINK-5088,PAYLOAD,2023-07-28 04:47:06,15.08830474,0.0001032,53.2159,173.6725,98.4767,261.6342,-7.7912e-05,-1.527e-05,0.0,0 STARLINK-5088,1 54000U 22125AN  23209.19938182 -.00001527  00000-0 -77912-4 0  9995,2 54000  53.2159 173.6725 0001032  98.4767 261.6342 15.08830474 45355,6917.91,95.438,540.488,539.061,0.0
54000.0,STARLINK-5088,PAYLOAD,2023-07-29 03:02:29,15.08845088,9.2e-05,53.2172,169.5093,95.2644,264.8453,6.1555e-05,6.92e-06,0.0,0 STARLINK-5088,1 54000U 22125AN  23210.12673247  .00000692  00000-0  61555-4 0  9994,2 54000  53.2172 169.5093 0000920  95.2644 264.8453 15.08845088 45564,6917.865,95.437,540.366,539.093,0.0
54000.0,STARLINK-5088,PAYLOAD,2023-07-29 14:10:12,15.08835654,0.0001379,53.2172,167.4269,79.3279,280.7868,-2.957e-06,-3.35e-06,0.0,0 STARLINK-5088,1 54000U 22125AN  23210.59042186 -.00000335  00000-0 -29570-5 0  9995,2 54000  53.2172 167.4269 0001379  79.3279 280.7868 15.08835654 45635,6917.894,95.438,540.713,538.805,0.0
54000.0,STARLINK-5088,PAYLOAD,2023-07-31 02:44:04,15.08846216,0.0001119,53.2148,160.5896,88.4614,271.6506,0.00013796,1.909e-05,0.0,0 STARLINK-5088,1 54000U 22125AN  23212.11393623  .00001909  00000-0  13796-3 0  9997,2 54000  53.2148 160.5896 0001119  88.4614 271.6506 15.08846216 45863,6917.861,95.437,540.5,538.952,0.0
54000.0,STARLINK-5088,PAYLOAD,2023-08-01 02:34:51,15.08835036,0.0001352,53.2153,156.1284,86.3877,273.727,1.152e-05,-1.05e-06,0.0,0 STARLINK-5088,1 54000U 22125AN  23213.10754487 -.00000105  00000-0  11520-4 0  9998,2 54000  53.2153 156.1284 0001352  86.3877 273.7270 15.08835036 46015,6917.896,95.438,540.696,538.825,0.0
54000.0,STARLINK-5088,PAYLOAD,2023-08-02 00:50:15,15.0884628,0.000127,53.2162,151.9633,94.504,265.6098,4.6658e-05,4.55e-06,0.0,0 STARLINK-5088,1 54000U 22125AN  23214.03490026  .00000455  00000-0  46658-4 0  9994,2 54000  53.2162 151.9633 0001270  94.5040 265.6098 15.08846280 46154,6917.861,95.437,540.605,538.848,0.0
54000.0,STARLINK-5088,PAYLOAD,2023-08-03 02:16:25,15.08845488,0.0001385,53.2156,147.2048,96.7687,263.3463,0.00018304,2.627e-05,0.0,0 STARLINK-5088,1 54000U 22125AN  23215.09474087  .00002627  00000-0  18304-3 0  9999,2 54000  53.2156 147.2048 0001385  96.7687 263.3463 15.08845488 46311,6917.864,95.437,540.687,538.77,0.0
54000.0,STARLINK-5088,PAYLOAD,2023-08-04 02:07:13,15.08838707,0.000136,53.2158,142.7446,103.3566,256.7578,1.9321e-05,2e-07,0.0,0 STARLINK-5088,1 54000U 22125AN  23216.08834542  .00000020  00000-0  19321-4 0  9991,2 54000  53.2158 142.7446 0001360 103.3566 256.7578 15.08838707 46464,6917.884,95.438,540.69,538.809,0.0
54000.0,STARLINK-5088,PAYLOAD,2023-08-05 03:33:22,15.0885395,0.0001167,53.2159,137.9866,101.0661,259.0462,0.00023547,3.463e-05,0.0,0 STARLINK-5088,1 54000U 22125AN  23217.14817958  .00003463  00000-0  23547-3 0  9999,2 54000  53.2159 137.9866 0001167 101.0661 259.0462 15.08853950 46626,6917.838,95.437,540.51,538.895,0.0
